FLOCK 4BE-9             
1 60514U 24149AY  26197.69615951  .00011929  00000+0  28513-3 0  9996
2 60514  97.3789 282.2704 0003834 166.7214 193.4134 15.41640499106860
FLOCK 4BE-6             
1 60516U 24149BA  26198.78830663  .00007842  00000+0  19631-3 0  9998
2 60516  97.3785 282.6733 0004553 165.3197 194.8183 15.40361316106987
FLOCK 4BE-14            
1 60517U 24149BB  26197.76917732  .00010395  00000+0  24668-3 0  9992
2 60517  97.3690 281.8103 0005529 171.7333 188.4006 15.41887264106880
FLOCK 4BE-1             
1 60518U 24149BC  26198.79109751  .00010114  00000+0  22700-3 0  9995
2 60518  97.3773 284.2313 0005253 167.7345 192.4032 15.43568068107093
FLOCK 4BE-28            
1 60519U 24149BD  26198.69204518  .00023640  00000+0  47844-3 0  9996
2 60519  97.3741 284.9557 0005398 168.3600 191.7775 15.46424923107154
IPERDRONE.0             
1 60520U 24149BE  26198.79111677  .00060022  00000+0  47053-3 0  9999
2 60520  97.3766 293.6222 0003930 161.8445 198.2959 15.71386008107711
TRANSPORTER-11 OBJECT BF
1 60521U 24149BF  26198.97089185  .01386109  24074-5  90066-3 0  9991
2 60521  97.3781 297.8615 0011533 254.3483 105.6532 16.17178955107999
CONNECTA IOT-2          
1 60522U 24149BG  26197.72474199  .00002375  00000+0  10038-3 0  9994
2 60522  97.3834 275.4257 0005706 206.6598 153.4347 15.24202017106397
CONNECTA IOT-4          
1 60524U 24149BJ  26198.95236188  .00011543  00000+0  26160-3 0  9996
2 60524  97.3790 283.7098 0006219 166.1070 194.0350 15.43236121107075
ORESAT0.5               
1 60525U 24149BK  26198.02831022  .00012499  00000+0  25648-3 0  9994
2 60525  97.3723 284.5078 0006338 158.6450 201.5065 15.46153168107089
DEIMOS                  
1 60526U 24149BL  26198.78997687  .00010852  00000+0  22994-3 0  9990
2 60526  97.3777 285.4062 0006255 161.7090 198.4385 15.45251826107173
CUAVA-2                 
1 60527U 24149BM  26198.69280348  .00006583  00000+0  18540-3 0  9998
2 60527  97.3716 280.2767 0007184 170.9802 189.1573 15.36768928106853
ERNST                   
1 60528U 24149BN  26198.78214186  .00007179  00000+0  18237-3 0  9991
2 60528  97.3802 282.7469 0006442 170.4061 189.7309 15.39934662106984
TORO                    
1 60530U 24149BQ  26198.79714578  .00000612  00000+0  58830-4 0  9994
2 60530  97.6772 272.8935 0001173 105.9715 254.1636 14.96519717104530
HYPSO-2                 
1 60531U 24149BR  26197.70807751  .00001223  00000+0  10597-3 0  9997
2 60531  97.6840 273.5404 0001719  97.4356 262.7063 14.98938445104475
LEMU NGE                
1 60532U 24149BS  26197.76849983  .00001112  00000+0  10671-3 0  9997
2 60532  97.6836 272.1305 0000573  91.0536 269.0750 14.95064503104377
LEMUR-2-STELLA          
1 60533U 24149BT  26198.19094303  .00005866  00000+0  34171-3 0  9995
2 60533  97.6732 280.7889 0001224 121.9085 238.2264 15.12393884105030
SATELIOT_2              
1 60534U 24149BU  26198.91927047  .00000349  00000+0  35773-4 0  9997
2 60534  97.6819 273.3151 0001375  75.2319 284.9055 14.96462364104569
NIGHTJAR                
1 60535U 24149BV  26198.49592861  .00002193  00000+0  18498-3 0  9996
2 60535  97.6844 274.7779 0002744  91.6768 268.4769 14.99179728147412
LEMUR-2-MARHISYAM       
1 60536U 24149BW  26198.77832861  .00005523  00000+0  32728-3 0  9997
2 60536  97.6874 281.8587 0002282  64.9251 295.2216 15.11805944105105
SATELIOT_4              
1 60537U 24149BX  26198.92388094  .00000430  00000+0  42550-4 0  9996
2 60537  97.6725 272.8258 0000806 321.4229  38.6935 14.96761587104575
PICO-02A021             
1 60538U 24149BY  26197.18574799  .00001948  00000+0  14740-3 0  9997
2 60538  97.6737 275.7720 0003713 277.2422  82.8381 15.03492308104092
ICEYE-X43               
1 60539U 24149BZ  26198.78688107  .00000539  00000+0  48335-4 0  9997
2 60539  97.6792 275.3412 0006402 336.1221  23.9705 14.99789818104701
HAWK-10A                
1 60540U 24149CA  26198.79217484  .00000172  00000+0  20124-4 0  9995
2 60540  97.6885 274.1778 0002852 352.5627   7.5552 14.96593914104564
UMBRA-09                
1 60541U 24149CB  26198.77517374  .00008343  00000+0  40315-3 0  9996
2 60541  97.6971 286.5233 0002049 195.5157 164.6014 15.18895623105369
QPS-SAR-8 (AMATERU-IV)  
1 60542U 24149CC  26198.79217470  .00001665  00000+0  12363-3 0  9995
2 60542  97.6650 277.6899 0003360  35.3364 324.8085 15.04405033104871
ARCTIC WEATHER SATELLITE
1 60543U 24149CD  26198.91501325  .00000317  00000+0  38621-4 0  9994
2 60543  97.6789 268.5002 0002728  44.9795 315.1644 14.89806042103871
CAPELLA-15 (ACADIA-5)   
1 60544U 24149CE  26198.09170480  .00001884  00000+0  18938-3 0  9996
2 60544  97.6761 270.2449 0002996 337.8678  22.2411 14.92399165104313
HAWK-10B                
1 60545U 24149CF  26198.79203980  .00000221  00000+0  24411-4 0  9994
2 60545  97.6803 273.5017 0005151   5.0864 355.0409 14.96592857104563
ICEYE-X39               
1 60546U 24149CG  26198.29600181  .00002233  00000+0  18388-3 0  9994
2 60546  97.6794 274.9147 0006899  40.8493 319.3246 15.00082591104632
