OBJECT_NAME,OBJECT_ID,EPOCH,MEAN_MOTION,ECCENTRICITY,INCLINATION,RA_OF_ASC_NODE,ARG_OF_PERICENTER,MEAN_ANOMALY,EPHEMERIS_TYPE,CLASSIFICATION_TYPE,NORAD_CAT_ID,ELEMENT_SET_NO,REV_AT_EPOCH,BSTAR,MEAN_MOTION_DOT,MEAN_MOTION_DDOT
FLOCK 4BE-9,2024-149AY,2026-07-16T16:42:28.181664,15.41640499,.00038347,97.3789,282.2704,166.7214,193.4134,0,U,60514,999,10686,.28512528E-3,.11929E-3,0
FLOCK 4BE-6,2024-149BA,2026-07-17T18:55:09.692832,15.40361316,.00045535,97.3785,282.6733,165.3197,194.8183,0,U,60516,999,10698,.19630579E-3,.7842E-4,0
FLOCK 4BE-14,2024-149BB,2026-07-16T18:27:36.920448,15.41887264,.00055298,97.3690,281.8103,171.7333,188.4006,0,U,60517,999,10688,.24668041E-3,.10395E-3,0
FLOCK 4BE-1,2024-149BC,2026-07-17T18:59:10.824864,15.43568068,.00052539,97.3773,284.2313,167.7345,192.4032,0,U,60518,999,10709,.22699703E-3,.10114E-3,0
FLOCK 4BE-28,2024-149BD,2026-07-17T16:36:32.703552,15.46424923,.00053984,97.3741,284.9557,168.3600,191.7775,0,U,60519,999,10715,.47843545E-3,.2364E-3,0
IPERDRONE.0,2024-149BE,2026-07-17T18:59:12.488928,15.71386008,.00039303,97.3766,293.6222,161.8445,198.2959,0,U,60520,999,10771,.47052876E-3,.60022E-3,0
TRANSPORTER-11 OBJECT BF,2024-149BF,2026-07-17T23:18:05.055840,16.17178955,.00115336,97.3781,297.8615,254.3483,105.6532,0,U,60521,999,10799,.90066164E-3,.1386109E-1,.2407442E-5
CONNECTA IOT-2,2024-149BG,2026-07-16T17:23:37.707936,15.24202017,.0005706,97.3834,275.4257,206.6598,153.4347,0,U,60522,999,10639,.10037503E-3,.2375E-4,0
CONNECTA IOT-4,2024-149BJ,2026-07-17T22:51:24.066432,15.43236121,.00062199,97.3790,283.7098,166.1070,194.0350,0,U,60524,999,10707,.26159975E-3,.11543E-3,0
ORESAT0.5,2024-149BK,2026-07-17T00:40:46.003008,15.46153168,.00063382,97.3723,284.5078,158.6450,201.5065,0,U,60525,999,10708,.25648358E-3,.12499E-3,0
DEIMOS,2024-149BL,2026-07-17T18:57:34.001568,15.45251826,.00062557,97.3777,285.4062,161.7090,198.4385,0,U,60526,999,10717,.22993963E-3,.10852E-3,0
CUAVA-2,2024-149BM,2026-07-17T16:37:38.220672,15.36768928,.00071843,97.3716,280.2767,170.9802,189.1573,0,U,60527,999,10685,.18539773E-3,.6583E-4,0
ERNST,2024-149BN,2026-07-17T18:46:17.056704,15.39934662,.00064426,97.3802,282.7469,170.4061,189.7309,0,U,60528,999,10698,.18236679E-3,.7179E-4,0
TORO,2024-149BQ,2026-07-17T19:07:53.395392,14.96519717,.00011731,97.6772,272.8935,105.9715,254.1636,0,U,60530,999,10453,.58829902E-4,.612E-5,0
HYPSO-2,2024-149BR,2026-07-16T16:59:37.896864,14.98938445,.00017195,97.6840,273.5404,97.4356,262.7063,0,U,60531,999,10447,.10597486E-3,.1223E-4,0
LEMU NGE,2024-149BS,2026-07-16T18:26:38.385312,14.95064503,.00005736,97.6836,272.1305,91.0536,269.0750,0,U,60532,999,10437,.10671069E-3,.1112E-4,0
LEMUR-2-STELLA,2024-149BT,2026-07-17T04:34:57.477792,15.12393884,.00012249,97.6732,280.7889,121.9085,238.2264,0,U,60533,999,10503,.34171112E-3,.5866E-4,0
SATELIOT_2,2024-149BU,2026-07-17T22:03:44.968608,14.96462364,.00013755,97.6819,273.3151,75.2319,284.9055,0,U,60534,999,10456,.35773219E-4,.349E-5,0
NIGHTJAR,2024-149BV,2026-07-17T11:54:08.231904,14.99179728,.0002744,97.6844,274.7779,91.6768,268.4769,0,U,60535,999,14741,.18498E-3,.2193E-4,0
LEMUR-2-MARHISYAM,2024-149BW,2026-07-17T18:40:47.591904,15.11805944,.0002282,97.6874,281.8587,64.9251,295.2216,0,U,60536,999,10510,.32727569E-3,.5523E-4,0
SATELIOT_4,2024-149BX,2026-07-17T22:10:23.313216,14.96761587,.00008068,97.6725,272.8258,321.4229,38.6935,0,U,60537,999,10457,.42549954E-4,.43E-5,0
PICO-02A021,2024-149BY,2026-07-16T04:27:28.626336,15.03492308,.0003713,97.6737,275.7720,277.2422,82.8381,0,U,60538,999,10409,.1474E-3,.1948E-4,0
ICEYE-X43,2024-149BZ,2026-07-17T18:53:06.524448,14.99789818,.00064027,97.6792,275.3412,336.1221,23.9705,0,U,60539,999,10470,.4833532E-4,.539E-5,0
HAWK-10A,2024-149CA,2026-07-17T19:00:43.906176,14.96593914,.00028529,97.6885,274.1778,352.5627,7.5552,0,U,60540,999,10456,.20124156E-4,.172E-5,0
UMBRA-09,2024-149CB,2026-07-17T18:36:15.011136,15.18895623,.00020498,97.6971,286.5233,195.5157,164.6014,0,U,60541,999,10536,.40315216E-3,.8343E-4,0
QPS-SAR-8 (AMATERU-IV),2024-149CC,2026-07-17T19:00:43.894080,15.04405033,.00033609,97.6650,277.6899,35.3364,324.8085,0,U,60542,999,10487,.12363154E-3,.1665E-4,0
ARCTIC WEATHER SATELLITE,2024-149CD,2026-07-17T21:57:37.144800,14.89806042,.00027283,97.6789,268.5002,44.9795,315.1644,0,U,60543,999,10387,.38620527E-4,.317E-5,0
CAPELLA-15 (ACADIA-5),2024-149CE,2026-07-17T02:12:03.294720,14.92399165,.0002996,97.6761,270.2449,337.8678,22.2411,0,U,60544,999,10431,.18938E-3,.1884E-4,0
HAWK-10B,2024-149CF,2026-07-17T19:00:32.238720,14.96592857,.00051514,97.6803,273.5017,5.0864,355.0409,0,U,60545,999,10456,.24410572E-4,.221E-5,0
ICEYE-X39,2024-149CG,2026-07-17T07:06:14.556384,15.00082591,.0006899,97.6794,274.9147,40.8493,319.3246,0,U,60546,999,10463,.18388E-3,.2233E-4,0
